[{"OBJECT_NAME":"STARLINK-4428","OBJECT_ID":"2022-105AA","EPOCH":"2026-03-09T15:55:26.931360","MEAN_MOTION":15.01253245,"ECCENTRICITY":0.00025835,"INCLINATION":97.6017,"RA_OF_ASC_NODE":310.2043,"ARG_OF_PERICENTER":56.708,"MEAN_ANOMALY":303.4392,"EPHEMERIS_TYPE":0,"CLASSIFICATION_TYPE":"U","NORAD_CAT_ID":53672,"ELEMENT_SET_NO":999,"REV_AT_EPOCH":19323,"BSTAR":-0.0001200629,"MEAN_MOTION_DOT":-1.6e-5,"MEAN_MOTION_DDOT":0},{"OBJECT_NAME":"HAWK-8B","OBJECT_ID":"2024-066D","EPOCH":"2026-03-09T11:23:00.219840","MEAN_MOTION":14.98769819,"ECCENTRICITY":0.00042801,"INCLINATION":45.6192,"RA_OF_ASC_NODE":73.7012,"ARG_OF_PERICENTER":258.0487,"MEAN_ANOMALY":101.9914,"EPHEMERIS_TYPE":0,"CLASSIFICATION_TYPE":"U","NORAD_CAT_ID":59445,"ELEMENT_SET_NO":999,"REV_AT_EPOCH":10486,"BSTAR":0.00021132759,"MEAN_MOTION_DOT":2.353e-5,"MEAN_MOTION_DDOT":0}]
